{"type": "FeatureCollection", "features": [ {"type": "Feature", "properties": {"norad_id": 66662, "name": "2025-274N", "group": "last-30-days", "lat": -75.95622533771645, "lon": 64.1071252120546, "alt_km": 586.1338162272614, "timestamp": "2025-12-15T20:48:52.614654+00:00", "meta": {"OBJECT_NAME": "2025-274N", "OBJECT_ID": "2025-274N", "EPOCH": "2025-12-14T21:08:39.316704", "MEAN_MOTION": 14.93163605, "ECCENTRICITY": 0.00135974, "INCLINATION": 97.7391, "RA_OF_ASC_NODE": 276.0705, "ARG_OF_PERICENTER": 273.6318, "MEAN_ANOMALY": 86.3346, "EPHEMERIS_TYPE": 0, "CLASSIFICATION_TYPE": "U", "NORAD_CAT_ID": 66662, "ELEMENT_SET_NO": 999, "REV_AT_EPOCH": 272, "BSTAR": 0.00026475301, "MEAN_MOTION_DOT": 2.711e-05, "MEAN_MOTION_DDOT": 0}, "tle": {"line1": "1 66662U 25274N   25348.88101061  .00002711  00000+0  26475-3 0  9990", "line2": "2 66662  97.7391 276.0705 0013597 273.6318  86.3346 14.93163605  2725"}}, "geometry": {"type": "Point", "coordinates": [64.1071252120546, -75.95622533771645]}}, {"type": "Feature", "properties": {"norad_id": 66663, "name": "KSLV-II R/B", "group": "last-30-days", "lat": -7.079751662291189, "lon": 96.2101833521801, "alt_km": 598.477081118851, "timestamp": "2025-12-15T20:48:52.614666+00:00", "meta": {"OBJECT_NAME": "KSLV-II R/B", "OBJECT_ID": "2025-274P", "EPOCH": "2025-12-14T16:42:44.074080", "MEAN_MOTION": 14.97324837, "ECCENTRICITY": 0.00530081, "INCLINATION": 97.7404, "RA_OF_ASC_NODE": 276.0184, "ARG_OF_PERICENTER": 312.9926, "MEAN_ANOMALY": 46.6859, "EPHEMERIS_TYPE": 0, "CLASSIFICATION_TYPE": "U", "NORAD_CAT_ID": 66663, "ELEMENT_SET_NO": 999, "REV_AT_EPOCH": 270, "BSTAR": 0.00039214597, "MEAN_MOTION_DOT": 4.62e-05, "MEAN_MOTION_DDOT": 0}, "tle": {"line1": "1 66663U 25274P   25348.69634345  .00004620  00000+0  39215-3 0  9993", "line2": "2 66663  97.7404 276.0184 0053008 312.9926  46.6859 14.97324837  2701"}}, "geometry": {"type": "Point", "coordinates": [96.2101833521801, -7.079751662291189]}}, {"type": "Feature", "properties": {"norad_id": 66664, "name": "SOYUZ-MS 28", "group": "last-30-days", "lat": -21.21717985131801, "lon": -35.096921172644876, "alt_km": 419.3780357975502, "timestamp": "2025-12-15T20:48:52.614677+00:00", "meta": {"OBJECT_NAME": "SOYUZ-MS 28", "OBJECT_ID": "2025-275A", "EPOCH": "2025-12-14T20:42:23.988960", "MEAN_MOTION": 15.4959536, "ECCENTRICITY": 0.00032074, "INCLINATION": 51.6306, "RA_OF_ASC_NODE": 131.9662, "ARG_OF_PERICENTER": 249.8734, "MEAN_ANOMALY": 110.1909, "EPHEMERIS_TYPE": 0, "CLASSIFICATION_TYPE": "U", "NORAD_CAT_ID": 66664, "ELEMENT_SET_NO": 999, "REV_AT_EPOCH": 128, "BSTAR": 0.00013765617, "MEAN_MOTION_DOT": 7.299e-05, "MEAN_MOTION_DDOT": 0}, "tle": {"line1": "1 66664U 25275A   25348.86277765  .00007299  00000+0  13766-3 0  9991", "line2": "2 66664  51.6306 131.9662 0003207 249.8734 110.1909 15.49595360  1287"}}, "geometry": {"type": "Point", "coordinates": [-35.096921172644876, -21.21717985131801]}}, {"type": "Feature", "properties": {"norad_id": 66791, "name": "STARLINK-35867", "group": "last-30-days", "lat": -30.521240342419574, "lon": 92.19613266576685, "alt_km": 335.5017755598192, "timestamp": "2025-12-15T20:48:52.614687+00:00", "meta": {"OBJECT_NAME": "STARLINK-35867", "OBJECT_ID": "2025-278A", "EPOCH": "2025-12-14T20:00:06.000192", "MEAN_MOTION": 15.81610166, "ECCENTRICITY": 0.00016325, "INCLINATION": 42.9969, "RA_OF_ASC_NODE": 239.2653, "ARG_OF_PERICENTER": 276.8291, "MEAN_ANOMALY": 182.6249, "EPHEMERIS_TYPE": 0, "CLASSIFICATION_TYPE": "U", "NORAD_CAT_ID": 66791, "ELEMENT_SET_NO": 999, "REV_AT_EPOCH": 329, "BSTAR": -0.0068686552, "MEAN_MOTION_DOT": -0.0125483, "MEAN_MOTION_DDOT": 0}, "tle": {"line1": "1 66791U 25278A   25348.83340278 -.01254830  00000+0 -68687-2 0  9991", "line2": "2 66791  42.9969 239.2653 0001632 276.8291 182.6249 15.81610166  3298"}}, "geometry": {"type": "Point", "coordinates": [92.19613266576685, -30.521240342419574]}}, {"type": "Feature", "properties": {"norad_id": 66792, "name": "STARLINK-35990", "group": "last-30-days", "lat": -31.501322250781595, "lon": 94.06615369663872, "alt_km": 335.38305342505555, "timestamp": "2025-12-15T20:48:52.614697+00:00", "meta": {"OBJECT_NAME": "STARLINK-35990", "OBJECT_ID": "2025-278B", "EPOCH": "2025-12-14T20:00:06.000192", "MEAN_MOTION": 15.81628454, "ECCENTRICITY": 0.0001696, "INCLINATION": 42.9969, "RA_OF_ASC_NODE": 239.2607, "ARG_OF_PERICENTER": 274.0087, "MEAN_ANOMALY": 187.2753, "EPHEMERIS_TYPE": 0, "CLASSIFICATION_TYPE": "U", "NORAD_CAT_ID": 66792, "ELEMENT_SET_NO": 999, "REV_AT_EPOCH": 329, "BSTAR": -0.0068832014, "MEAN_MOTION_DOT": -0.01258173, "MEAN_MOTION_DDOT": 0}, "tle": {"line1": "1 66792U 25278B   25348.83340278 -.01258173  00000+0 -68832-2 0  9998", "line2": "2 66792  42.9969 239.2607 0001696 274.0087 187.2753 15.81628454  3291"}}, "geometry": {"type": "Point", "coordinates": [94.06615369663872, -31.501322250781595]}}, {"type": "Feature", "properties": {"norad_id": 66793, "name": "STARLINK-36051", "group": "last-30-days", "lat": -33.773215399291935, "lon": 98.79713193829468, "alt_km": 335.66890900335966, "timestamp": "2025-12-15T20:48:52.614707+00:00", "meta": {"OBJECT_NAME": "STARLINK-36051", "OBJECT_ID": "2025-278C", "EPOCH": "2025-12-14T20:00:06.000192", "MEAN_MOTION": 15.81547197, "ECCENTRICITY": 0.00016278, "INCLINATION": 42.9971, "RA_OF_ASC_NODE": 239.2481, "ARG_OF_PERICENTER": 267.7944, "MEAN_ANOMALY": 198.4843, "EPHEMERIS_TYPE": 0, "CLASSIFICATION_TYPE": "U", "NORAD_CAT_ID": 66793, "ELEMENT_SET_NO": 999, "REV_AT_EPOCH": 319, "BSTAR": -0.0070416026, "MEAN_MOTION_DOT": -0.01279296, "MEAN_MOTION_DDOT": 0}, "tle": {"line1": "1 66793U 25278C   25348.83340278 -.01279296  00000+0 -70416-2 0  9999", "line2": "2 66793  42.9971 239.2481 0001627 267.7944 198.4843 15.81547197  3197"}}, "geometry": {"type": "Point", "coordinates": [98.79713193829468, -33.773215399291935]}}, {"type": "Feature", "properties": {"norad_id": 66794, "name": "STARLINK-36062", "group": "last-30-days", "lat": -32.74190421276732, "lon": 96.5729561133971, "alt_km": 335.60529466111166, "timestamp": "2025-12-15T20:48:52.614717+00:00", "meta": {"OBJECT_NAME": "STARLINK-36062", "OBJECT_ID": "2025-278D", "EPOCH": "2025-12-14T20:00:06.000192", "MEAN_MOTION": 15.81564378, "ECCENTRICITY": 0.00015914, "INCLINATION": 42.9971, "RA_OF_ASC_NODE": 239.2536, "ARG_OF_PERICENTER": 270.353, "MEAN_ANOMALY": 193.6786, "EPHEMERIS_TYPE": 0, "CLASSIFICATION_TYPE": "U", "NORAD_CAT_ID": 66794, "ELEMENT_SET_NO": 999, "REV_AT_EPOCH": 329, "BSTAR": -0.006965512, "MEAN_MOTION_DOT": -0.0126799, "MEAN_MOTION_DDOT": 0}, "tle": {"line1": "1 66794U 25278D   25348.83340278 -.01267990  00000+0 -69655-2 0  9991", "line2": "2 66794  42.9971 239.2536 0001591 270.3530 193.6786 15.81564378  3294"}}, "geometry": {"type": "Point", "coordinates": [96.5729561133971, -32.74190421276732]}}, {"type": "Feature", "properties": {"norad_id": 66795, "name": "STARLINK-36047", "group": "last-30-days", "lat": -34.86901332552965, "lon": 101.32589393731351, "alt_km": 335.8527028818853, "timestamp": "2025-12-15T20:48:52.614899+00:00", "meta": {"OBJECT_NAME": "STARLINK-36047", "OBJECT_ID": "2025-278E", "EPOCH": "2025-12-14T20:00:06.000192", "MEAN_MOTION": 15.81492168, "ECCENTRICITY": 0.00016155, "INCLINATION": 42.9971, "RA_OF_ASC_NODE": 239.2412, "ARG_OF_PERICENTER": 266.6555, "MEAN_ANOMALY": 202.21, "EPHEMERIS_TYPE": 0, "CLASSIFICATION_TYPE": "U", "NORAD_CAT_ID": 66795, "ELEMENT_SET_NO": 999, "REV_AT_EPOCH": 319, "BSTAR": -0.0070826671, "MEAN_MOTION_DOT": -0.01282923, "MEAN_MOTION_DDOT": 0}, "tle": {"line1": "1 66795U 25278E   25348.83340278 -.01282923  00000+0 -70827-2 0  9998", "line2": "2 66795  42.9971 239.2412 0001615 266.6555 202.2100 15.81492168  3193"}}, "geometry": {"type": "Point", "coordinates": [101.32589393731351, -34.86901332552965]}}, {"type": "Feature", "properties": {"norad_id": 66796, "name": "STARLINK-35964", "group": "last-30-days", "lat": -25.863886465064, "lon": -159.56064892208724, "alt_km": 310.8094924322786, "timestamp": "2025-12-15T20:48:52.614912+00:00", "meta": {"OBJECT_NAME": "STARLINK-35964", "OBJECT_ID": "2025-278F", "EPOCH": "2025-12-14T20:00:06.000192", "MEAN_MOTION": 15.92132257, "ECCENTRICITY": 0.00013754, "INCLINATION": 42.9938, "RA_OF_ASC_NODE": 238.2067, "ARG_OF_PERICENTER": 263.4662, "MEAN_ANOMALY": 252.6414, "EPHEMERIS_TYPE": 0, "CLASSIFICATION_TYPE": "U", "NORAD_CAT_ID": 66796, "ELEMENT_SET_NO": 999, "REV_AT_EPOCH": 313, "BSTAR": -0.0073372193, "MEAN_MOTION_DOT": -0.02517482, "MEAN_MOTION_DDOT": 0.0016754531}, "tle": {"line1": "1 66796U 25278F   25348.83340278 -.02517482  16755-2 -73372-2 0  9996", "line2": "2 66796  42.9938 238.2067 0001375 263.4662 252.6414 15.92132257  3132"}}, "geometry": {"type": "Point", "coordinates": [-159.56064892208724, -25.863886465064]}}, {"type": "Feature", "properties": {"norad_id": 66797, "name": "STARLINK-36099", "group": "last-30-days", "lat": -36.88503206956483, "lon": 106.55771781244027, "alt_km": 336.46318421827254, "timestamp": "2025-12-15T20:48:52.614922+00:00", "meta": {"OBJECT_NAME": "STARLINK-36099", "OBJECT_ID": "2025-278G", "EPOCH": "2025-12-14T20:00:06.000192", "MEAN_MOTION": 15.81386097, "ECCENTRICITY": 0.00015908, "INCLINATION": 42.9969, "RA_OF_ASC_NODE": 239.2283, "ARG_OF_PERICENTER": 273.7344, "MEAN_ANOMALY": 200.3265, "EPHEMERIS_TYPE": 0, "CLASSIFICATION_TYPE": "U", "NORAD_CAT_ID": 66797, "ELEMENT_SET_NO": 999, "REV_AT_EPOCH": 335, "BSTAR": -0.0072418139, "MEAN_MOTION_DOT": -0.0130248, "MEAN_MOTION_DDOT": 0}, "tle": {"line1": "1 66797U 25278G   25348.83340278 -.01302480  00000+0 -72418-2 0  9999", "line2": "2 66797  42.9969 239.2283 0001590 273.7344 200.3265 15.81386097  3357"}}, "geometry": {"type": "Point", "coordinates": [106.55771781244027, -36.88503206956483]}}]}